SOYUZ-MS 22             
1 53879U 22116A   22293.47193758  .00012197  00000+0  22442-3 0  9992
2 53879  51.6427  75.8961 0005248 354.8812 111.8475 15.49600066364619
2022-118A               
1 53884U 22118A   22294.50387524  .00004662  00000+0  20003-3 0  9990
2 53884  97.5216 301.0478 0015690 161.6539 349.6318 15.23113516  4045
2022-118B               
1 53885U 22118B   22294.49245295  .00006571  00000+0  27503-3 0  9990
2 53885  97.5212 301.0631 0012725 167.3872 345.2237 15.23835765  4030
STARLINK-5028           
1 53886U 22119A   22294.16667824  .00023122  00000+0  16867-3 0  9994
2 53886  53.2149 123.3482 0000696 100.9265 242.3058 15.73204550  4553
STARLINK-5029           
1 53887U 22119B   22294.50001157 -.00020020  00000+0 -13841-3 0  9999
2 53887  53.2143 121.6924 0001335  91.0378 342.9793 15.73225503  4617
STARLINK-5034           
1 53888U 22119C   22294.50001157  .00093983  00000+0  66713-3 0  9992
2 53888  53.2150 121.6971 0001391  37.9519  34.8581 15.73180615  4612
STARLINK-5031           
1 53889U 22119D   22294.50001157  .00045162  00000+0  32435-3 0  9993
2 53889  53.2151 121.6982 0001001  68.1929   5.2127 15.73208727  4618
STARLINK-5050           
1 53890U 22119E   22293.91667824 -.00000771  00000+0 -10757-5 0  9992
2 53890  53.2176 123.0528 0001587  41.6668 356.9358 15.73204344  1300
STARLINK-5041           
1 53891U 22119F   22294.16667824  .00023733  00000+0  17306-3 0  9997
2 53891  53.2144 123.3428 0001121  82.6193 263.5854 15.73197038  4555
STARLINK-5046           
1 53892U 22119G   22294.16667824 -.00005285  00000+0 -33214-4 0  9999
2 53892  53.2160 123.3396 0002173  21.3031 327.8801 15.73223254  4553
STARLINK-5052           
1 53893U 22119H   22294.16667824 -.00030112  00000+0 -21062-3 0  9994
2 53893  53.2140 123.3374 0001094 141.0957 206.9255 15.73230917  4550
STARLINK-5043           
1 53894U 22119J   22293.91667824  .00027726  00000+0  20131-3 0  9998
2 53894  53.2152 124.5759 0001136  79.2005 290.9005 15.73200031  1307
STARLINK-5032           
1 53895U 22119K   22293.91667824  .00066456  00000+0  47488-3 0  9996
2 53895  53.2152 124.5721 0001138  79.1285 292.8045 15.73165589  1301
STARLINK-5037           
1 53896U 22119L   22293.91667824  .00079915  00000+0  56911-3 0  9992
2 53896  53.2159 124.5723 0002655  25.4950 347.5991 15.73168789  1302
STARLINK-5035           
1 53897U 22119M   22294.16667824 -.00008215  00000+0 -54113-4 0  9991
2 53897  53.2149 123.3412 0001238 132.3175 215.0871 15.73225633  4555
STARLINK-5044           
1 53898U 22119N   22294.50001157  .00041735  00000+0  30010-3 0  9992
2 53898  53.2148 121.6831 0001447  48.7408  31.8159 15.73215740  4610
STARLINK-5042           
1 53899U 22119P   22294.50001157 -.00032044  00000+0 -22447-3 0  9993
2 53899  53.2152 121.6855 0001239  47.3931  32.5627 15.73230880  4617
STARLINK-5045           
1 53900U 22119Q   22294.50001157  .00097893  00000+0  69416-3 0  9994
2 53900  53.2163 121.6801 0001445  39.2079  42.5315 15.73188099  4614
STARLINK-5024           
1 53901U 22119R   22293.91667824  .00077553  00000+0  55254-3 0  9994
2 53901  53.2157 124.5712 0001236  92.2752 281.4073 15.73172738  1307
STARLINK-5021           
1 53902U 22119S   22294.50001157  .00102043  00000+0  66092-3 0  9997
2 53902  53.2142 121.5775 0000273 327.7767 164.0805 15.75272043  4618
STARLINK-5022           
1 53903U 22119T   22294.16667824  .00023903  00000+0  17427-3 0  9994
2 53903  53.2151 123.3334 0001127  78.4587 273.7042 15.73196390  4551
STARLINK-4787           
1 53904U 22119U   22294.16667824 -.00021166  00000+0 -14658-3 0  9999
2 53904  53.2143 123.3251 0000889  70.3120 283.0404 15.73230937  4551
STARLINK-5003           
1 53905U 22119V   22294.50001157 -.00028922  00000+0 -20197-3 0  9991
2 53905  53.2146 121.6726 0001346  94.1251 349.9836 15.73244476  4612
STARLINK-5054           
1 53906U 22119W   22294.16667824  .00024734  00000+0  18014-3 0  9993
2 53906  53.2151 123.3224 0001870  19.1580 337.7754 15.73198305  4551
STARLINK-5063           
1 53907U 22119X   22293.91667824  .00080205  00000+0  57125-3 0  9997
2 53907  53.2158 124.5635 0001991  35.9831 341.3060 15.73165874  1303
STARLINK-5057           
1 53908U 22119Y   22294.58334491  .00048695  00000+0  34908-3 0  9994
2 53908  53.2157 121.2578 0001133 101.7441  96.9990 15.73218929  4623
STARLINK-4796           
1 53909U 22119Z   22294.16667824  .00027073  00000+0  19666-3 0  9999
2 53909  53.2145 123.3244 0001002  43.3489 311.1916 15.73203777  4559
STARLINK-5056           
1 53910U 22119AA  22294.50001157 -.00022293  00000+0 -15465-3 0  9994
2 53910  53.2146 121.6654 0001193  91.0995 357.1998 15.73228443  4615
STARLINK-5048           
1 53911U 22119AB  22293.91667824  .00025827  00000+0  18788-3 0  9993
2 53911  53.2155 124.5566 0001013  85.7626 293.8799 15.73198815  1309
STARLINK-5059           
1 53912U 22119AC  22294.50001157  .00066394  00000+0  47396-3 0  9992
2 53912  53.2154 121.6687 0001104  54.5218  33.1736 15.73189664  4618
STARLINK-5053           
1 53913U 22119AD  22294.50001157  .00049707  00000+0  35661-3 0  9994
2 53913  53.2153 121.6647 0000940 103.5462 345.9403 15.73192252  4619
STARLINK-5040           
1 53914U 22119AE  22294.50001157  .00086224  00000+0  61259-3 0  9992
2 53914  53.2155 121.6634 0001184  89.5724   0.5434 15.73195824  4619
STARLINK-5017           
1 53915U 22119AF  22293.91667824  .00083662  00000+0  59556-3 0  9996
2 53915  53.2159 124.5548 0001406  85.6113 295.8343 15.73161752  1300
STARLINK-5051           
1 53916U 22119AG  22294.50001157  .00056914  00000+0  40707-3 0  9992
2 53916  53.2212 121.5666 0001208 140.4893   0.5215 15.73207101  4619
STARLINK-5036           
1 53917U 22119AH  22293.91667824  .00084286  00000+0  60027-3 0  9996
2 53917  53.2160 124.5513 0001141  76.1379 307.1064 15.73148497  1309
STARLINK-5012           
1 53918U 22119AJ  22294.50001157  .00088181  00000+0  62604-3 0  9995
2 53918  53.2156 121.6603 0001055 100.4351 350.8429 15.73203690  4612
STARLINK-5023           
1 53919U 22119AK  22293.91667824  .00087543  00000+0  62276-3 0  9995
2 53919  53.2156 124.5446 0001510  71.9397 314.2998 15.73159204  1307
STARLINK-5025           
1 53920U 22119AL  22294.25001157  .00035966  00000+0  25957-3 0  9993
2 53920  53.2154 122.8926 0001142  82.2048  35.2941 15.73201088  4578
STARLINK-5005           
1 53921U 22119AM  22294.55636245  .00844545  11706-4  52629-3 0  9996
2 53921  53.2169 117.0367 0023191 147.8510 212.5488 16.16532492  4682
STARLINK-5002           
1 53922U 22119AN  22294.25001157  .00034801  00000+0  25138-3 0  9993
2 53922  53.2157 122.8918 0001164  94.2743  23.8318 15.73196733  4574
STARLINK-5004           
1 53923U 22119AP  22294.50001157 -.00029691  00000+0 -20752-3 0  9992
2 53923  53.2154 121.6578 0001339  84.5937   9.0643 15.73239866  4619
STARLINK-5001           
1 53924U 22119AQ  22293.91667824  .00087154  00000+0  62013-3 0  9998
2 53924  53.2159 124.5367 0001311  75.3397 315.6746 15.73156190  1302
STARLINK-5011           
1 53925U 22119AR  22293.91667824  .00078134  00000+0  55651-3 0  9997
2 53925  53.2163 124.5463 0001564  66.6855 320.1230 15.73176608  1302
STARLINK-5014           
1 53926U 22119AS  22294.25001157  .00034641  00000+0  25031-3 0  9991
2 53926  53.2158 122.8834 0000900 100.9964  19.4937 15.73191278  4570
STARLINK-5008           
1 53927U 22119AT  22294.25001157  .00011036  00000+0  82909-4 0  9993
2 53927  53.2157 122.8857 0000688  89.1644  30.1442 15.73209117  4574
STARLINK-5009           
1 53928U 22119AU  22294.50001157  .00013951  00000+0  10352-3 0  9992
2 53928  53.2152 121.6468 0001294 100.2387 357.6019 15.73230275  4619
STARLINK-5018           
1 53929U 22119AV  22294.58334491  .00046809  00000+0  33578-3 0  9994
2 53929  53.2148 121.2393 0001670  26.1104 181.5617 15.73220322  4620
STARLINK-5010           
1 53930U 22119AW  22294.58334491  .00048752  00000+0  34960-3 0  9991
2 53930  53.2161 121.2322 0001095  88.4026 122.9265 15.73211154  4625
STARLINK-5015           
1 53931U 22119AX  22294.58334491  .00059768  00000+0  42662-3 0  9999
2 53931  53.2152 121.2287 0001172  48.3523 164.0709 15.73234244  4624
STARLINK-4772           
1 53932U 22119AY  22294.58334491  .00049673  00000+0  35580-3 0  9995
2 53932  53.2157 121.2313 0001171  60.2219 151.6358 15.73229769  4622
STARLINK-4782           
1 53933U 22119AZ  22293.91667824  .00046098  00000+0  33131-3 0  9999
2 53933  53.2158 124.5303 0001284  87.7303 305.0309 15.73182498  1302
STARLINK-4775           
1 53934U 22119BA  22293.91667824 -.00024378  00000+0 -16980-3 0  9992
2 53934  53.2158 124.5256 0001029  70.4060 324.7288 15.73197943  1301
STARLINK-5000           
1 53935U 22119BB  22293.91667824  .00086054  00000+0  61247-3 0  9996
2 53935  53.2160 124.5262 0001527  85.8053 310.5269 15.73154744  1301
STARLINK-4791           
1 53936U 22119BC  22294.58334491  .00053639  00000+0  38386-3 0  9993
2 53936  53.2157 121.2263 0000791  98.6205 115.0457 15.73218280  4627
STARLINK-4765           
1 53937U 22119BD  22294.58334491  .00055603  00000+0  39780-3 0  9996
2 53937  53.2163 121.2224 0001414  37.6673 177.1725 15.73210178  4622
2022-118C               
1 53942U 22118C   22294.27246865  .00029814  23768-5  36736-3 0  9999
2 53942  97.5252 300.9653 0266903 271.8718  85.1979 15.28193836  4011
YAOGAN-36 01A           
1 53943U 22120A   22294.45440679  .00009513  00000+0  38478-3 0  9999
2 53943  34.9979  28.6186 0005508 156.9255 296.8059 15.23949422  3800
CZ-2D DEB               
1 53944U 22120B   22294.36620348  .00027773  00000+0  10478-2 0  9990
2 53944  35.0016  28.9464 0007893 116.1133 297.7129 15.26080829  3795
CZ-2D R/B               
1 53945U 22120C   22294.56094534  .00023900  00000+0  91319-3 0  9997
2 53945  34.9992  27.7924 0007478 112.5076 264.5769 15.25688793  3795
